zip,Zipcode name,City,State,County Name
54405,"ABBOTSFORD, WI",ABBOTSFORD,WI,CLARK
54101,"ABRAMS, WI",ABRAMS,WI,OCONTO
53910,"ADAMS, WI",ADAMS,WI,ADAMS
53001,"ADELL, WI",ADELL,WI,SHEBOYGAN
53501,"AFTON, WI",AFTON,WI,ROCK
53502,"ALBANY, WI",ALBANY,WI,GREEN
54201,"ALGOMA, WI",ALGOMA,WI,KEWAUNEE
53002,"ALLENTON, WI",ALLENTON,WI,WASHINGTON
54610,"ALMA, WI",ALMA,WI,BUFFALO
54611,"ALMA CENTER, WI",ALMA CENTER,WI,JACKSON
54805,"ALMENA, WI",ALMENA,WI,BARRON
54909,"ALMOND, WI",ALMOND,WI,PORTAGE
54720,"ALTOONA, WI",ALTOONA,WI,EAU CLAIRE
54102,"AMBERG, WI",AMBERG,WI,MARINETTE
54001,"AMERY, WI",AMERY,WI,POLK
54406,"AMHERST, WI",AMHERST,WI,PORTAGE
54407,"AMHERST JUNCTION, WI",AMHERST JUNCTION,WI,PORTAGE
54408,"ANIWA, WI",ANIWA,WI,MARATHON
54409,"ANTIGO, WI",ANTIGO,WI,LANGLADE
54911,"APPLETON, WI",APPLETON,WI,OUTAGAMIE
54912,"APPLETON, WI",APPLETON,WI,OUTAGAMIE
54913,"APPLETON, WI",APPLETON,WI,OUTAGAMIE
54914,"APPLETON, WI",APPLETON,WI,OUTAGAMIE
54915,"APPLETON, WI",APPLETON,WI,OUTAGAMIE
54919,"APPLETON, WI",APPLETON,WI,OUTAGAMIE
54612,"ARCADIA, WI",ARCADIA,WI,TREMPEALEAU
53503,"ARENA, WI",ARENA,WI,IOWA
54511,"ARGONNE, WI",ARGONNE,WI,FOREST
53504,"ARGYLE, WI",ARGYLE,WI,LAFAYETTE
54721,"ARKANSAW, WI",ARKANSAW,WI,PEPIN
54613,"ARKDALE, WI",ARKDALE,WI,ADAMS
53911,"ARLINGTON, WI",ARLINGTON,WI,COLUMBIA
54103,"ARMSTRONG CREEK, WI",ARMSTRONG CREEK,WI,FOREST
54410,"ARPIN, WI",ARPIN,WI,WOOD
53003,"ASHIPPUN, WI",ASHIPPUN,WI,DODGE
54806,"ASHLAND, WI",ASHLAND,WI,ASHLAND
54104,"ATHELSTANE, WI",ATHELSTANE,WI,MARINETTE
54411,"ATHENS, WI",ATHENS,WI,MARATHON
54412,"AUBURNDALE, WI",AUBURNDALE,WI,WOOD
54722,"AUGUSTA, WI",AUGUSTA,WI,EAU CLAIRE
53505,"AVALON, WI",AVALON,WI,ROCK
53506,"AVOCA, WI",AVOCA,WI,IOWA
54413,"BABCOCK, WI",BABCOCK,WI,WOOD
53801,"BAGLEY, WI",BAGLEY,WI,GRANT
54202,"BAILEYS HARBOR, WI",BAILEYS HARBOR,WI,DOOR
54002,"BALDWIN, WI",BALDWIN,WI,SAINT CROIX
54810,"BALSAM LAKE, WI",BALSAM LAKE,WI,POLK
54921,"BANCROFT, WI",BANCROFT,WI,PORTAGE
54614,"BANGOR, WI",BANGOR,WI,LA CROSSE
53913,"BARABOO, WI",BARABOO,WI,SAUK
53507,"BARNEVELD, WI",BARNEVELD,WI,IOWA
54812,"BARRON, WI",BARRON,WI,BARRON
54813,"BARRONETT, WI",BARRONETT,WI,BARRON
53101,"BASSETT, WI",BASSETT,WI,KENOSHA
54723,"BAY CITY, WI",BAY CITY,WI,PIERCE
54814,"BAYFIELD, WI",BAYFIELD,WI,BAYFIELD
54922,"BEAR CREEK, WI",BEAR CREEK,WI,OUTAGAMIE
53916,"BEAVER DAM, WI",BEAVER DAM,WI,DODGE
53802,"BEETOWN, WI",BEETOWN,WI,GRANT
54003,"BELDENVILLE, WI",BELDENVILLE,WI,PIERCE
53004,"BELGIUM, WI",BELGIUM,WI,OZAUKEE
53508,"BELLEVILLE, WI",BELLEVILLE,WI,DANE
53510,"BELMONT, WI",BELMONT,WI,LAFAYETTE
53511,"BELOIT, WI",BELOIT,WI,ROCK
53512,"BELOIT, WI",BELOIT,WI,ROCK
53102,"BENET LAKE, WI",BENET LAKE,WI,KENOSHA
54816,"BENOIT, WI",BENOIT,WI,BAYFIELD
53803,"BENTON, WI",BENTON,WI,LAFAYETTE
54923,"BERLIN, WI",BERLIN,WI,GREEN LAKE
53103,"BIG BEND, WI",BIG BEND,WI,WAUKESHA
54926,"BIG FALLS, WI",BIG FALLS,WI,WAUPACA
54817,"BIRCHWOOD, WI",BIRCHWOOD,WI,WASHBURN
54414,"BIRNAMWOOD, WI",BIRNAMWOOD,WI,SHAWANO
54106,"BLACK CREEK, WI",BLACK CREEK,WI,OUTAGAMIE
53515,"BLACK EARTH, WI",BLACK EARTH,WI,DANE
54615,"BLACK RIVER FALLS, WI",BLACK RIVER FALLS,WI,JACKSON
54616,"BLAIR, WI",BLAIR,WI,TREMPEALEAU
53516,"BLANCHARDVILLE, WI",BLANCHARDVILLE,WI,LAFAYETTE
54415,"BLENKER, WI",BLENKER,WI,WOOD
54724,"BLOOMER, WI",BLOOMER,WI,CHIPPEWA
53804,"BLOOMINGTON, WI",BLOOMINGTON,WI,GRANT
53517,"BLUE MOUNDS, WI",BLUE MOUNDS,WI,DANE
53518,"BLUE RIVER, WI",BLUE RIVER,WI,GRANT
54107,"BONDUEL, WI",BONDUEL,WI,SHAWANO
53805,"BOSCOBEL, WI",BOSCOBEL,WI,GRANT
54512,"BOULDER JUNCTION, WI",BOULDER JUNCTION,WI,VILAS
54416,"BOWLER, WI",BOWLER,WI,SHAWANO
54725,"BOYCEVILLE, WI",BOYCEVILLE,WI,DUNN
54726,"BOYD, WI",BOYD,WI,CHIPPEWA
53919,"BRANDON, WI",BRANDON,WI,FOND DU LAC
54513,"BRANTWOOD, WI",BRANTWOOD,WI,PRICE
53920,"BRIGGSVILLE, WI",BRIGGSVILLE,WI,MARQUETTE
54818,"BRILL, WI",BRILL,WI,BARRON
54110,"BRILLION, WI",BRILLION,WI,CALUMET
53104,"BRISTOL, WI",BRISTOL,WI,KENOSHA
53520,"BRODHEAD, WI",BRODHEAD,WI,GREEN
54417,"BROKAW, WI",BROKAW,WI,MARATHON
53005,"BROOKFIELD, WI",BROOKFIELD,WI,WAUKESHA
53008,"BROOKFIELD, WI",BROOKFIELD,WI,WAUKESHA
53045,"BROOKFIELD, WI",BROOKFIELD,WI,WAUKESHA
53521,"BROOKLYN, WI",BROOKLYN,WI,GREEN
53006,"BROWNSVILLE, WI",BROWNSVILLE,WI,DODGE
53522,"BROWNTOWN, WI",BROWNTOWN,WI,GREEN
54819,"BRUCE, WI",BRUCE,WI,RUSK
54820,"BRULE, WI",BRULE,WI,DOUGLAS
54204,"BRUSSELS, WI",BRUSSELS,WI,DOOR
54418,"BRYANT, WI",BRYANT,WI,LANGLADE
53105,"BURLINGTON, WI",BURLINGTON,WI,RACINE
53922,"BURNETT, WI",BURNETT,WI,DODGE
53007,"BUTLER, WI",BUTLER,WI,WAUKESHA
54927,"BUTTE DES MORTS, WI",BUTTE DES MORTS,WI,WINNEBAGO
54514,"BUTTERNUT, WI",BUTTERNUT,WI,ASHLAND
54821,"CABLE, WI",CABLE,WI,BAYFIELD
54727,"CADOTT, WI",CADOTT,WI,CHIPPEWA
53108,"CALEDONIA, WI",CALEDONIA,WI,RACINE
53923,"CAMBRIA, WI",CAMBRIA,WI,COLUMBIA
53523,"CAMBRIDGE, WI",CAMBRIDGE,WI,DANE
54822,"CAMERON, WI",CAMERON,WI,BARRON
54618,"CAMP DOUGLAS, WI",CAMP DOUGLAS,WI,JUNEAU
53109,"CAMP LAKE, WI",CAMP LAKE,WI,KENOSHA
53010,"CAMPBELLSPORT, WI",CAMPBELLSPORT,WI,FOND DU LAC
54928,"CAROLINE, WI",CAROLINE,WI,SHAWANO
53011,"CASCADE, WI",CASCADE,WI,SHEBOYGAN
54205,"CASCO, WI",CASCO,WI,KEWAUNEE
54619,"CASHTON, WI",CASHTON,WI,MONROE
53806,"CASSVILLE, WI",CASSVILLE,WI,GRANT
54515,"CATAWBA, WI",CATAWBA,WI,PRICE
53924,"CAZENOVIA, WI",CAZENOVIA,WI,RICHLAND
54111,"CECIL, WI",CECIL,WI,SHAWANO
53013,"CEDAR GROVE, WI",CEDAR GROVE,WI,SHEBOYGAN
53012,"CEDARBURG, WI",CEDARBURG,WI,OZAUKEE
54824,"CENTURIA, WI",CENTURIA,WI,POLK
54621,"CHASEBURG, WI",CHASEBURG,WI,VERNON
54728,"CHETEK, WI",CHETEK,WI,BARRON
54420,"CHILI, WI",CHILI,WI,CLARK
53014,"CHILTON, WI",CHILTON,WI,CALUMET
54729,"CHIPPEWA FALLS, WI",CHIPPEWA FALLS,WI,CHIPPEWA
54517,"CLAM LAKE, WI",CLAM LAKE,WI,ASHLAND
54004,"CLAYTON, WI",CLAYTON,WI,POLK
54005,"CLEAR LAKE, WI",CLEAR LAKE,WI,POLK
53015,"CLEVELAND, WI",CLEVELAND,WI,MANITOWOC
53525,"CLINTON, WI",CLINTON,WI,ROCK
54929,"CLINTONVILLE, WI",CLINTONVILLE,WI,WAUPACA
53016,"CLYMAN, WI",CLYMAN,WI,DODGE
53526,"COBB, WI",COBB,WI,IOWA
54622,"COCHRANE, WI",COCHRANE,WI,BUFFALO
54421,"COLBY, WI",COLBY,WI,CLARK
54112,"COLEMAN, WI",COLEMAN,WI,MARINETTE
54730,"COLFAX, WI",COLFAX,WI,DUNN
53017,"COLGATE, WI",COLGATE,WI,WASHINGTON
54207,"COLLINS, WI",COLLINS,WI,MANITOWOC
54930,"COLOMA, WI",COLOMA,WI,WAUSHARA
53925,"COLUMBUS, WI",COLUMBUS,WI,COLUMBIA
54113,"COMBINED LOCKS, WI",COMBINED LOCKS,WI,OUTAGAMIE
54826,"COMSTOCK, WI",COMSTOCK,WI,BARRON
54519,"CONOVER, WI",CONOVER,WI,VILAS
54731,"CONRATH, WI",CONRATH,WI,RUSK
54623,"COON VALLEY, WI",COON VALLEY,WI,VERNON
54732,"CORNELL, WI",CORNELL,WI,CHIPPEWA
54827,"CORNUCOPIA, WI",CORNUCOPIA,WI,BAYFIELD
53527,"COTTAGE GROVE, WI",COTTAGE GROVE,WI,DANE
54828,"COUDERAY, WI",COUDERAY,WI,SAWYER
54520,"CRANDON, WI",CRANDON,WI,FOREST
54114,"CRIVITZ, WI",CRIVITZ,WI,MARINETTE
53528,"CROSS PLAINS, WI",CROSS PLAINS,WI,DANE
53807,"CUBA CITY, WI",CUBA CITY,WI,GRANT
53110,"CUDAHY, WI",CUDAHY,WI,MILWAUKEE
54829,"CUMBERLAND, WI",CUMBERLAND,WI,BARRON
54422,"CURTISS, WI",CURTISS,WI,CLARK
54006,"CUSHING, WI",CUSHING,WI,POLK
54423,"CUSTER, WI",CUSTER,WI,PORTAGE
54931,"DALE, WI",DALE,WI,OUTAGAMIE
54733,"DALLAS, WI",DALLAS,WI,BARRON
53926,"DALTON, WI",DALTON,WI,GREEN LAKE
54830,"DANBURY, WI",DANBURY,WI,BURNETT
53529,"DANE, WI",DANE,WI,DANE
53114,"DARIEN, WI",DARIEN,WI,WALWORTH
53530,"DARLINGTON, WI",DARLINGTON,WI,LAFAYETTE
53532,"DE FOREST, WI",DE FOREST,WI,DANE
54115,"DE PERE, WI",DE PERE,WI,BROWN
54624,"DE SOTO, WI",DE SOTO,WI,VERNON
54007,"DEER PARK, WI",DEER PARK,WI,SAINT CROIX
54424,"DEERBROOK, WI",DEERBROOK,WI,LANGLADE
53531,"DEERFIELD, WI",DEERFIELD,WI,DANE
53018,"DELAFIELD, WI",DELAFIELD,WI,WAUKESHA
53115,"DELAVAN, WI",DELAVAN,WI,WALWORTH
53927,"DELLWOOD, WI",DELLWOOD,WI,ADAMS
54208,"DENMARK, WI",DENMARK,WI,BROWN
53808,"DICKEYVILLE, WI",DICKEYVILLE,WI,GRANT
54625,"DODGE, WI",DODGE,WI,TREMPEALEAU
53533,"DODGEVILLE, WI",DODGEVILLE,WI,IOWA
53595,"DODGEVILLE, WI",DODGEVILLE,WI,IOWA
54425,"DORCHESTER, WI",DORCHESTER,WI,CLARK
53118,"DOUSMAN, WI",DOUSMAN,WI,WAUKESHA
54734,"DOWNING, WI",DOWNING,WI,DUNN
54735,"DOWNSVILLE, WI",DOWNSVILLE,WI,DUNN
53928,"DOYLESTOWN, WI",DOYLESTOWN,WI,COLUMBIA
54009,"DRESSER, WI",DRESSER,WI,POLK
54832,"DRUMMOND, WI",DRUMMOND,WI,BAYFIELD
54119,"DUNBAR, WI",DUNBAR,WI,MARINETTE
54736,"DURAND, WI",DURAND,WI,PEPIN
53119,"EAGLE, WI",EAGLE,WI,WAUKESHA
54521,"EAGLE RIVER, WI",EAGLE RIVER,WI,VILAS
54010,"EAST ELLSWORTH, WI",EAST ELLSWORTH,WI,PIERCE
53120,"EAST TROY, WI",EAST TROY,WI,WALWORTH
54626,"EASTMAN, WI",EASTMAN,WI,CRAWFORD
54701,"EAU CLAIRE, WI",EAU CLAIRE,WI,EAU CLAIRE
54702,"EAU CLAIRE, WI",EAU CLAIRE,WI,EAU CLAIRE
54703,"EAU CLAIRE, WI",EAU CLAIRE,WI,EAU CLAIRE
54737,"EAU GALLE, WI",EAU GALLE,WI,DUNN
53019,"EDEN, WI",EDEN,WI,FOND DU LAC
54426,"EDGAR, WI",EDGAR,WI,MARATHON
53534,"EDGERTON, WI",EDGERTON,WI,ROCK
53535,"EDMUND, WI",EDMUND,WI,IOWA
54209,"EGG HARBOR, WI",EGG HARBOR,WI,DOOR
54427,"ELAND, WI",ELAND,WI,MARATHON
54428,"ELCHO, WI",ELCHO,WI,LANGLADE
54429,"ELDERON, WI",ELDERON,WI,MARATHON
54932,"ELDORADO, WI",ELDORADO,WI,FOND DU LAC
54738,"ELEVA, WI",ELEVA,WI,TREMPEALEAU
54739,"ELK MOUND, WI",ELK MOUND,WI,DUNN
53020,"ELKHART LAKE, WI",ELKHART LAKE,WI,SHEBOYGAN
53121,"ELKHORN, WI",ELKHORN,WI,WALWORTH
54210,"ELLISON BAY, WI",ELLISON BAY,WI,DOOR
54011,"ELLSWORTH, WI",ELLSWORTH,WI,PIERCE
53122,"ELM GROVE, WI",ELM GROVE,WI,WAUKESHA
54740,"ELMWOOD, WI",ELMWOOD,WI,PIERCE
53929,"ELROY, WI",ELROY,WI,JUNEAU
54430,"ELTON, WI",ELTON,WI,LANGLADE
54933,"EMBARRASS, WI",EMBARRASS,WI,WAUPACA
53930,"ENDEAVOR, WI",ENDEAVOR,WI,MARQUETTE
54211,"EPHRAIM, WI",EPHRAIM,WI,DOOR
54627,"ETTRICK, WI",ETTRICK,WI,TREMPEALEAU
54934,"EUREKA, WI",EUREKA,WI,WINNEBAGO
53536,"EVANSVILLE, WI",EVANSVILLE,WI,ROCK
54835,"EXELAND, WI",EXELAND,WI,SAWYER
54741,"FAIRCHILD, WI",FAIRCHILD,WI,EAU CLAIRE
53931,"FAIRWATER, WI",FAIRWATER,WI,FOND DU LAC
54742,"FALL CREEK, WI",FALL CREEK,WI,EAU CLAIRE
53932,"FALL RIVER, WI",FALL RIVER,WI,COLUMBIA
54120,"FENCE, WI",FENCE,WI,FLORENCE
53809,"FENNIMORE, WI",FENNIMORE,WI,GRANT
54628,"FERRYVILLE, WI",FERRYVILLE,WI,CRAWFORD
54524,"FIFIELD, WI",FIFIELD,WI,PRICE
54212,"FISH CREEK, WI",FISH CREEK,WI,DOOR
54121,"FLORENCE, WI",FLORENCE,WI,FLORENCE
54935,"FOND DU LAC, WI",FOND DU LAC,WI,FOND DU LAC
54936,"FOND DU LAC, WI",FOND DU LAC,WI,FOND DU LAC
54937,"FOND DU LAC, WI",FOND DU LAC,WI,FOND DU LAC
53125,"FONTANA, WI",FONTANA,WI,WALWORTH
53537,"FOOTVILLE, WI",FOOTVILLE,WI,ROCK
54123,"FOREST JUNCTION, WI",FOREST JUNCTION,WI,CALUMET
54213,"FORESTVILLE, WI",FORESTVILLE,WI,DOOR
53538,"FORT ATKINSON, WI",FORT ATKINSON,WI,JEFFERSON
54629,"FOUNTAIN CITY, WI",FOUNTAIN CITY,WI,BUFFALO
53933,"FOX LAKE, WI",FOX LAKE,WI,DODGE
54836,"FOXBORO, WI",FOXBORO,WI,DOUGLAS
54214,"FRANCIS CREEK, WI",FRANCIS CREEK,WI,MANITOWOC
53132,"FRANKLIN, WI",FRANKLIN,WI,MILWAUKEE
53126,"FRANKSVILLE, WI",FRANKSVILLE,WI,RACINE
54837,"FREDERIC, WI",FREDERIC,WI,POLK
53021,"FREDONIA, WI",FREDONIA,WI,OZAUKEE
54131,"FREEDOM, WI",FREEDOM,WI,OUTAGAMIE
54940,"FREMONT, WI",FREMONT,WI,WAUPACA
53934,"FRIENDSHIP, WI",FRIENDSHIP,WI,ADAMS
53935,"FRIESLAND, WI",FRIESLAND,WI,COLUMBIA
54630,"GALESVILLE, WI",GALESVILLE,WI,TREMPEALEAU
54631,"GAYS MILLS, WI",GAYS MILLS,WI,CRAWFORD
53127,"GENESEE DEPOT, WI",GENESEE DEPOT,WI,WAUKESHA
54632,"GENOA, WI",GENOA,WI,VERNON
53128,"GENOA CITY, WI",GENOA CITY,WI,WALWORTH
53022,"GERMANTOWN, WI",GERMANTOWN,WI,WASHINGTON
54525,"GILE, WI",GILE,WI,IRON
54124,"GILLETT, WI",GILLETT,WI,OCONTO
54433,"GILMAN, WI",GILMAN,WI,TAYLOR
54743,"GILMANTON, WI",GILMANTON,WI,BUFFALO
54435,"GLEASON, WI",GLEASON,WI,LINCOLN
54526,"GLEN FLORA, WI",GLEN FLORA,WI,RUSK
53810,"GLEN HAVEN, WI",GLEN HAVEN,WI,GRANT
53023,"GLENBEULAH, WI",GLENBEULAH,WI,SHEBOYGAN
54013,"GLENWOOD CITY, WI",GLENWOOD CITY,WI,SAINT CROIX
54527,"GLIDDEN, WI",GLIDDEN,WI,ASHLAND
54125,"GOODMAN, WI",GOODMAN,WI,MARINETTE
54838,"GORDON, WI",GORDON,WI,DOUGLAS
53540,"GOTHAM, WI",GOTHAM,WI,RICHLAND
53024,"GRAFTON, WI",GRAFTON,WI,OZAUKEE
53936,"GRAND MARSH, WI",GRAND MARSH,WI,ADAMS
54436,"GRANTON, WI",GRANTON,WI,CLARK
54840,"GRANTSBURG, WI",GRANTSBURG,WI,BURNETT
53541,"GRATIOT, WI",GRATIOT,WI,LAFAYETTE
54301,"GREEN BAY, WI",GREEN BAY,WI,BROWN
54302,"GREEN BAY, WI",GREEN BAY,WI,BROWN
54303,"GREEN BAY, WI",GREEN BAY,WI,BROWN
54304,"GREEN BAY, WI",GREEN BAY,WI,BROWN
54305,"GREEN BAY, WI",GREEN BAY,WI,BROWN
54306,"GREEN BAY, WI",GREEN BAY,WI,BROWN
54307,"GREEN BAY, WI",GREEN BAY,WI,BROWN
54308,"GREEN BAY, WI",GREEN BAY,WI,BROWN
54311,"GREEN BAY, WI",GREEN BAY,WI,BROWN
54313,"GREEN BAY, WI",GREEN BAY,WI,BROWN
54324,"GREEN BAY, WI",GREEN BAY,WI,BROWN
54344,"GREEN BAY, WI",GREEN BAY,WI,BROWN
54941,"GREEN LAKE, WI",GREEN LAKE,WI,GREEN LAKE
54127,"GREEN VALLEY, WI",GREEN VALLEY,WI,SHAWANO
53026,"GREENBUSH, WI",GREENBUSH,WI,SHEBOYGAN
53129,"GREENDALE, WI",GREENDALE,WI,MILWAUKEE
54126,"GREENLEAF, WI",GREENLEAF,WI,BROWN
54942,"GREENVILLE, WI",GREENVILLE,WI,OUTAGAMIE
54437,"GREENWOOD, WI",GREENWOOD,WI,CLARK
54128,"GRESHAM, WI",GRESHAM,WI,SHAWANO
54014,"HAGER CITY, WI",HAGER CITY,WI,PIERCE
53130,"HALES CORNERS, WI",HALES CORNERS,WI,MILWAUKEE
54015,"HAMMOND, WI",HAMMOND,WI,SAINT CROIX
54943,"HANCOCK, WI",HANCOCK,WI,WAUSHARA
53542,"HANOVER, WI",HANOVER,WI,ROCK
54529,"HARSHAW, WI",HARSHAW,WI,ONEIDA
53027,"HARTFORD, WI",HARTFORD,WI,WASHINGTON
53029,"HARTLAND, WI",HARTLAND,WI,WAUKESHA
54440,"HATLEY, WI",HATLEY,WI,MARATHON
54841,"HAUGEN, WI",HAUGEN,WI,BARRON
54530,"HAWKINS, WI",HAWKINS,WI,RUSK
54842,"HAWTHORNE, WI",HAWTHORNE,WI,DOUGLAS
54843,"HAYWARD, WI",HAYWARD,WI,SAWYER
53811,"HAZEL GREEN, WI",HAZEL GREEN,WI,GRANT
54531,"HAZELHURST, WI",HAZELHURST,WI,ONEIDA
54532,"HEAFFORD JUNCTION, WI",HEAFFORD JUNCTION,WI,LINCOLN
53137,"HELENVILLE, WI",HELENVILLE,WI,JEFFERSON
54844,"HERBSTER, WI",HERBSTER,WI,BAYFIELD
54441,"HEWITT, WI",HEWITT,WI,WOOD
54846,"HIGH BRIDGE, WI",HIGH BRIDGE,WI,ASHLAND
53543,"HIGHLAND, WI",HIGHLAND,WI,IOWA
54129,"HILBERT, WI",HILBERT,WI,CALUMET
53937,"HILLPOINT, WI",HILLPOINT,WI,SAUK
54634,"HILLSBORO, WI",HILLSBORO,WI,VERNON
53031,"HINGHAM, WI",HINGHAM,WI,SHEBOYGAN
54635,"HIXTON, WI",HIXTON,WI,JACKSON
54745,"HOLCOMBE, WI",HOLCOMBE,WI,CHIPPEWA
53544,"HOLLANDALE, WI",HOLLANDALE,WI,IOWA
54636,"HOLMEN, WI",HOLMEN,WI,LA CROSSE
53138,"HONEY CREEK, WI",HONEY CREEK,WI,WALWORTH
53032,"HORICON, WI",HORICON,WI,DODGE
54944,"HORTONVILLE, WI",HORTONVILLE,WI,OUTAGAMIE
54082,"HOULTON, WI",HOULTON,WI,SAINT CROIX
53033,"HUBERTUS, WI",HUBERTUS,WI,WASHINGTON
54016,"HUDSON, WI",HUDSON,WI,SAINT CROIX
54746,"HUMBIRD, WI",HUMBIRD,WI,CLARK
54534,"HURLEY, WI",HURLEY,WI,IRON
53034,"HUSTISFORD, WI",HUSTISFORD,WI,DODGE
54637,"HUSTLER, WI",HUSTLER,WI,JUNEAU
54747,"INDEPENDENCE, WI",INDEPENDENCE,WI,TREMPEALEAU
54945,"IOLA, WI",IOLA,WI,WAUPACA
54442,"IRMA, WI",IRMA,WI,LINCOLN
54536,"IRON BELT, WI",IRON BELT,WI,IRON
53035,"IRON RIDGE, WI",IRON RIDGE,WI,DODGE
54847,"IRON RIVER, WI",IRON RIVER,WI,BAYFIELD
53036,"IXONIA, WI",IXONIA,WI,JEFFERSON
53037,"JACKSON, WI",JACKSON,WI,WASHINGTON
53545,"JANESVILLE, WI",JANESVILLE,WI,ROCK
53546,"JANESVILLE, WI",JANESVILLE,WI,ROCK
53547,"JANESVILLE, WI",JANESVILLE,WI,ROCK
53548,"JANESVILLE, WI",JANESVILLE,WI,ROCK
53549,"JEFFERSON, WI",JEFFERSON,WI,JEFFERSON
54748,"JIM FALLS, WI",JIM FALLS,WI,CHIPPEWA
53038,"JOHNSON CREEK, WI",JOHNSON CREEK,WI,JEFFERSON
53550,"JUDA, WI",JUDA,WI,GREEN
54434,"JUMP RIVER, WI",JUMP RIVER,WI,TAYLOR
54443,"JUNCTION CITY, WI",JUNCTION CITY,WI,PORTAGE
53039,"JUNEAU, WI",JUNEAU,WI,DODGE
53139,"KANSASVILLE, WI",KANSASVILLE,WI,RACINE
54130,"KAUKAUNA, WI",KAUKAUNA,WI,OUTAGAMIE
54215,"KELLNERSVILLE, WI",KELLNERSVILLE,WI,MANITOWOC
54638,"KENDALL, WI",KENDALL,WI,MONROE
54537,"KENNAN, WI",KENNAN,WI,PRICE
53140,"KENOSHA, WI",KENOSHA,WI,KENOSHA
53141,"KENOSHA, WI",KENOSHA,WI,KENOSHA
53142,"KENOSHA, WI",KENOSHA,WI,KENOSHA
53143,"KENOSHA, WI",KENOSHA,WI,KENOSHA
53144,"KENOSHA, WI",KENOSHA,WI,KENOSHA
54135,"KESHENA, WI",KESHENA,WI,MENOMINEE
53040,"KEWASKUM, WI",KEWASKUM,WI,WASHINGTON
54216,"KEWAUNEE, WI",KEWAUNEE,WI,KEWAUNEE
53042,"KIEL, WI",KIEL,WI,MANITOWOC
53812,"KIELER, WI",KIELER,WI,GRANT
54136,"KIMBERLY, WI",KIMBERLY,WI,OUTAGAMIE
54946,"KING, WI",KING,WI,WAUPACA
53939,"KINGSTON, WI",KINGSTON,WI,GREEN LAKE
54749,"KNAPP, WI",KNAPP,WI,DUNN
53044,"KOHLER, WI",KOHLER,WI,SHEBOYGAN
54137,"KRAKOW, WI",KRAKOW,WI,SHAWANO
54601,"LA CROSSE, WI",LA CROSSE,WI,LA CROSSE
54602,"LA CROSSE, WI",LA CROSSE,WI,LA CROSSE
54603,"LA CROSSE, WI",LA CROSSE,WI,LA CROSSE
54639,"LA FARGE, WI",LA FARGE,WI,VERNON
54850,"LA POINTE, WI",LA POINTE,WI,ASHLAND
53941,"LA VALLE, WI",LA VALLE,WI,SAUK
54538,"LAC DU FLAMBEAU, WI",LAC DU FLAMBEAU,WI,VILAS
54848,"LADYSMITH, WI",LADYSMITH,WI,RUSK
53940,"LAKE DELTON, WI",LAKE DELTON,WI,SAUK
53147,"LAKE GENEVA, WI",LAKE GENEVA,WI,WALWORTH
53551,"LAKE MILLS, WI",LAKE MILLS,WI,JEFFERSON
54849,"LAKE NEBAGAMON, WI",LAKE NEBAGAMON,WI,DOUGLAS
54539,"LAKE TOMAHAWK, WI",LAKE TOMAHAWK,WI,ONEIDA
54138,"LAKEWOOD, WI",LAKEWOOD,WI,OCONTO
53813,"LANCASTER, WI",LANCASTER,WI,GRANT
54540,"LAND O LAKES, WI",LAND O LAKES,WI,VILAS
53046,"LANNON, WI",LANNON,WI,WAUKESHA
54541,"LAONA, WI",LAONA,WI,FOREST
54947,"LARSEN, WI",LARSEN,WI,WINNEBAGO
53047,"LEBANON, WI",LEBANON,WI,DODGE
54139,"LENA, WI",LENA,WI,OCONTO
54948,"LEOPOLIS, WI",LEOPOLIS,WI,SHAWANO
53942,"LIME RIDGE, WI",LIME RIDGE,WI,SAUK
53553,"LINDEN, WI",LINDEN,WI,IOWA
54140,"LITTLE CHUTE, WI",LITTLE CHUTE,WI,OUTAGAMIE
54141,"LITTLE SUAMICO, WI",LITTLE SUAMICO,WI,OCONTO
53554,"LIVINGSTON, WI",LIVINGSTON,WI,GRANT
53555,"LODI, WI",LODI,WI,COLUMBIA
53943,"LOGANVILLE, WI",LOGANVILLE,WI,SAUK
53048,"LOMIRA, WI",LOMIRA,WI,DODGE
53556,"LONE ROCK, WI",LONE ROCK,WI,RICHLAND
54542,"LONG LAKE, WI",LONG LAKE,WI,FLORENCE
53557,"LOWELL, WI",LOWELL,WI,DODGE
54446,"LOYAL, WI",LOYAL,WI,CLARK
54447,"LUBLIN, WI",LUBLIN,WI,TAYLOR
54853,"LUCK, WI",LUCK,WI,POLK
54217,"LUXEMBURG, WI",LUXEMBURG,WI,KEWAUNEE
53944,"LYNDON STATION, WI",LYNDON STATION,WI,JUNEAU
53148,"LYONS, WI",LYONS,WI,WALWORTH
53701,"MADISON, WI",MADISON,WI,DANE
53702,"MADISON, WI",MADISON,WI,DANE
53703,"MADISON, WI",MADISON,WI,DANE
53704,"MADISON, WI",MADISON,WI,DANE
53705,"MADISON, WI",MADISON,WI,DANE
53706,"MADISON, WI",MADISON,WI,DANE
53707,"MADISON, WI",MADISON,WI,DANE
53708,"MADISON, WI",MADISON,WI,DANE
53711,"MADISON, WI",MADISON,WI,DANE
53713,"MADISON, WI",MADISON,WI,DANE
53714,"MADISON, WI",MADISON,WI,DANE
53715,"MADISON, WI",MADISON,WI,DANE
53716,"MADISON, WI",MADISON,WI,DANE
53717,"MADISON, WI",MADISON,WI,DANE
53718,"MADISON, WI",MADISON,WI,DANE
53719,"MADISON, WI",MADISON,WI,DANE
53725,"MADISON, WI",MADISON,WI,DANE
53726,"MADISON, WI",MADISON,WI,DANE
53744,"MADISON, WI",MADISON,WI,DANE
53783,"MADISON, WI",MADISON,WI,DANE
53791,"MADISON, WI",MADISON,WI,DANE
53792,"MADISON, WI",MADISON,WI,DANE
53793,"MADISON, WI",MADISON,WI,DANE
54750,"MAIDEN ROCK, WI",MAIDEN ROCK,WI,PIERCE
53049,"MALONE, WI",MALONE,WI,FOND DU LAC
54949,"MANAWA, WI",MANAWA,WI,WAUPACA
54545,"MANITOWISH WATERS, WI",MANITOWISH WATERS,WI,VILAS
54220,"MANITOWOC, WI",MANITOWOC,WI,MANITOWOC
54221,"MANITOWOC, WI",MANITOWOC,WI,MANITOWOC
54854,"MAPLE, WI",MAPLE,WI,DOUGLAS
54226,"MAPLEWOOD, WI",MAPLEWOOD,WI,DOOR
54448,"MARATHON, WI",MARATHON,WI,MARATHON
54855,"MARENGO, WI",MARENGO,WI,ASHLAND
54227,"MARIBEL, WI",MARIBEL,WI,MANITOWOC
54143,"MARINETTE, WI",MARINETTE,WI,MARINETTE
54950,"MARION, WI",MARION,WI,WAUPACA
53946,"MARKESAN, WI",MARKESAN,WI,GREEN LAKE
53947,"MARQUETTE, WI",MARQUETTE,WI,GREEN LAKE
53559,"MARSHALL, WI",MARSHALL,WI,DANE
54404,"MARSHFIELD, WI",MARSHFIELD,WI,WOOD
54449,"MARSHFIELD, WI",MARSHFIELD,WI,WOOD
54856,"MASON, WI",MASON,WI,BAYFIELD
54641,"MATHER, WI",MATHER,WI,JUNEAU
54450,"MATTOON, WI",MATTOON,WI,SHAWANO
53948,"MAUSTON, WI",MAUSTON,WI,JUNEAU
53050,"MAYVILLE, WI",MAYVILLE,WI,DODGE
53560,"MAZOMANIE, WI",MAZOMANIE,WI,DANE
53558,"MC FARLAND, WI",MC FARLAND,WI,DANE
54543,"MC NAUGHTON, WI",MC NAUGHTON,WI,ONEIDA
54451,"MEDFORD, WI",MEDFORD,WI,TAYLOR
54546,"MELLEN, WI",MELLEN,WI,ASHLAND
54642,"MELROSE, WI",MELROSE,WI,JACKSON
54952,"MENASHA, WI",MENASHA,WI,WINNEBAGO
53051,"MENOMONEE FALLS, WI",MENOMONEE FALLS,WI,WAUKESHA
53052,"MENOMONEE FALLS, WI",MENOMONEE FALLS,WI,WAUKESHA
54751,"MENOMONIE, WI",MENOMONIE,WI,DUNN
53092,"MEQUON, WI",MEQUON,WI,OZAUKEE
53097,"MEQUON, WI",MEQUON,WI,OZAUKEE
54547,"MERCER, WI",MERCER,WI,IRON
54452,"MERRILL, WI",MERRILL,WI,LINCOLN
54754,"MERRILLAN, WI",MERRILLAN,WI,JACKSON
53561,"MERRIMAC, WI",MERRIMAC,WI,SAUK
53056,"MERTON, WI",MERTON,WI,WAUKESHA
53562,"MIDDLETON, WI",MIDDLETON,WI,DANE
54857,"MIKANA, WI",MIKANA,WI,BARRON
54454,"MILLADORE, WI",MILLADORE,WI,WOOD
54643,"MILLSTON, WI",MILLSTON,WI,JACKSON
54858,"MILLTOWN, WI",MILLTOWN,WI,POLK
53563,"MILTON, WI",MILTON,WI,ROCK
53201,"MILWAUKEE, WI",MILWAUKEE,WI,MILWAUKEE
53202,"MILWAUKEE, WI",MILWAUKEE,WI,MILWAUKEE
53203,"MILWAUKEE, WI",MILWAUKEE,WI,MILWAUKEE
53204,"MILWAUKEE, WI",MILWAUKEE,WI,MILWAUKEE
53205,"MILWAUKEE, WI",MILWAUKEE,WI,MILWAUKEE
53206,"MILWAUKEE, WI",MILWAUKEE,WI,MILWAUKEE
53207,"MILWAUKEE, WI",MILWAUKEE,WI,MILWAUKEE
53208,"MILWAUKEE, WI",MILWAUKEE,WI,MILWAUKEE
53209,"MILWAUKEE, WI",MILWAUKEE,WI,MILWAUKEE
53210,"MILWAUKEE, WI",MILWAUKEE,WI,MILWAUKEE
53211,"MILWAUKEE, WI",MILWAUKEE,WI,MILWAUKEE
53212,"MILWAUKEE, WI",MILWAUKEE,WI,MILWAUKEE
53213,"MILWAUKEE, WI",MILWAUKEE,WI,MILWAUKEE
53214,"MILWAUKEE, WI",MILWAUKEE,WI,MILWAUKEE
53215,"MILWAUKEE, WI",MILWAUKEE,WI,MILWAUKEE
53216,"MILWAUKEE, WI",MILWAUKEE,WI,MILWAUKEE
53217,"MILWAUKEE, WI",MILWAUKEE,WI,MILWAUKEE
53218,"MILWAUKEE, WI",MILWAUKEE,WI,MILWAUKEE
53219,"MILWAUKEE, WI",MILWAUKEE,WI,MILWAUKEE
53220,"MILWAUKEE, WI",MILWAUKEE,WI,MILWAUKEE
53221,"MILWAUKEE, WI",MILWAUKEE,WI,MILWAUKEE
53222,"MILWAUKEE, WI",MILWAUKEE,WI,MILWAUKEE
53223,"MILWAUKEE, WI",MILWAUKEE,WI,MILWAUKEE
53224,"MILWAUKEE, WI",MILWAUKEE,WI,MILWAUKEE
53225,"MILWAUKEE, WI",MILWAUKEE,WI,MILWAUKEE
53226,"MILWAUKEE, WI",MILWAUKEE,WI,MILWAUKEE
53227,"MILWAUKEE, WI",MILWAUKEE,WI,MILWAUKEE
53228,"MILWAUKEE, WI",MILWAUKEE,WI,MILWAUKEE
53233,"MILWAUKEE, WI",MILWAUKEE,WI,MILWAUKEE
53234,"MILWAUKEE, WI",MILWAUKEE,WI,MILWAUKEE
53237,"MILWAUKEE, WI",MILWAUKEE,WI,MILWAUKEE
53259,"MILWAUKEE, WI",MILWAUKEE,WI,MILWAUKEE
53278,"MILWAUKEE, WI",MILWAUKEE,WI,MILWAUKEE
53288,"MILWAUKEE, WI",MILWAUKEE,WI,MILWAUKEE
53293,"MILWAUKEE, WI",MILWAUKEE,WI,MILWAUKEE
53295,"MILWAUKEE, WI",MILWAUKEE,WI,MILWAUKEE
54644,"MINDORO, WI",MINDORO,WI,LA CROSSE
53565,"MINERAL POINT, WI",MINERAL POINT,WI,IOWA
54548,"MINOCQUA, WI",MINOCQUA,WI,ONEIDA
54859,"MINONG, WI",MINONG,WI,WASHBURN
54228,"MISHICOT, WI",MISHICOT,WI,MANITOWOC
54755,"MONDOVI, WI",MONDOVI,WI,BUFFALO
53566,"MONROE, WI",MONROE,WI,GREEN
53949,"MONTELLO, WI",MONTELLO,WI,MARQUETTE
53569,"MONTFORT, WI",MONTFORT,WI,GRANT
53570,"MONTICELLO, WI",MONTICELLO,WI,GREEN
54550,"MONTREAL, WI",MONTREAL,WI,IRON
53571,"MORRISONVILLE, WI",MORRISONVILLE,WI,DANE
54455,"MOSINEE, WI",MOSINEE,WI,MARATHON
53057,"MOUNT CALVARY, WI",MOUNT CALVARY,WI,FOND DU LAC
53816,"MOUNT HOPE, WI",MOUNT HOPE,WI,GRANT
53572,"MOUNT HOREB, WI",MOUNT HOREB,WI,DANE
54645,"MOUNT STERLING, WI",MOUNT STERLING,WI,CRAWFORD
54149,"MOUNTAIN, WI",MOUNTAIN,WI,OCONTO
53149,"MUKWONAGO, WI",MUKWONAGO,WI,WAUKESHA
53573,"MUSCODA, WI",MUSCODA,WI,GRANT
53150,"MUSKEGO, WI",MUSKEGO,WI,WAUKESHA
53058,"NASHOTAH, WI",NASHOTAH,WI,WAUKESHA
54646,"NECEDAH, WI",NECEDAH,WI,JUNEAU
54956,"NEENAH, WI",NEENAH,WI,WINNEBAGO
54957,"NEENAH, WI",NEENAH,WI,WINNEBAGO
54456,"NEILLSVILLE, WI",NEILLSVILLE,WI,CLARK
54457,"NEKOOSA, WI",NEKOOSA,WI,WOOD
54756,"NELSON, WI",NELSON,WI,BUFFALO
54458,"NELSONVILLE, WI",NELSONVILLE,WI,PORTAGE
54150,"NEOPIT, WI",NEOPIT,WI,MENOMINEE
53059,"NEOSHO, WI",NEOSHO,WI,DODGE
54960,"NESHKORO, WI",NESHKORO,WI,MARQUETTE
54757,"NEW AUBURN, WI",NEW AUBURN,WI,CHIPPEWA
53146,"NEW BERLIN, WI",NEW BERLIN,WI,WAUKESHA
53151,"NEW BERLIN, WI",NEW BERLIN,WI,WAUKESHA
54229,"NEW FRANKEN, WI",NEW FRANKEN,WI,BROWN
53574,"NEW GLARUS, WI",NEW GLARUS,WI,GREEN
53061,"NEW HOLSTEIN, WI",NEW HOLSTEIN,WI,CALUMET
53062,"NEW HOLSTEIN, WI",NEW HOLSTEIN,WI,CALUMET
53950,"NEW LISBON, WI",NEW LISBON,WI,JUNEAU
54961,"NEW LONDON, WI",NEW LONDON,WI,WAUPACA
53152,"NEW MUNSTER, WI",NEW MUNSTER,WI,KENOSHA
54017,"NEW RICHMOND, WI",NEW RICHMOND,WI,SAINT CROIX
53060,"NEWBURG, WI",NEWBURG,WI,WASHINGTON
53063,"NEWTON, WI",NEWTON,WI,MANITOWOC
54151,"NIAGARA, WI",NIAGARA,WI,MARINETTE
54152,"NICHOLS, WI",NICHOLS,WI,OUTAGAMIE
53951,"NORTH FREEDOM, WI",NORTH FREEDOM,WI,SAUK
53064,"NORTH LAKE, WI",NORTH LAKE,WI,WAUKESHA
53153,"NORTH PRAIRIE, WI",NORTH PRAIRIE,WI,WAUKESHA
54648,"NORWALK, WI",NORWALK,WI,MONROE
53154,"OAK CREEK, WI",OAK CREEK,WI,MILWAUKEE
54649,"OAKDALE, WI",OAKDALE,WI,MONROE
53065,"OAKFIELD, WI",OAKFIELD,WI,FOND DU LAC
53066,"OCONOMOWOC, WI",OCONOMOWOC,WI,WAUKESHA
54153,"OCONTO, WI",OCONTO,WI,OCONTO
54154,"OCONTO FALLS, WI",OCONTO FALLS,WI,OCONTO
54861,"ODANAH, WI",ODANAH,WI,ASHLAND
54962,"OGDENSBURG, WI",OGDENSBURG,WI,WAUPACA
54459,"OGEMA, WI",OGEMA,WI,PRICE
54862,"OJIBWA, WI",OJIBWA,WI,SAWYER
53069,"OKAUCHEE, WI",OKAUCHEE,WI,WAUKESHA
54963,"OMRO, WI",OMRO,WI,WINNEBAGO
54650,"ONALASKA, WI",ONALASKA,WI,LA CROSSE
54155,"ONEIDA, WI",ONEIDA,WI,BROWN
54651,"ONTARIO, WI",ONTARIO,WI,VERNON
53070,"OOSTBURG, WI",OOSTBURG,WI,SHEBOYGAN
53575,"OREGON, WI",OREGON,WI,DANE
53576,"ORFORDVILLE, WI",ORFORDVILLE,WI,ROCK
54020,"OSCEOLA, WI",OSCEOLA,WI,POLK
54901,"OSHKOSH, WI",OSHKOSH,WI,WINNEBAGO
54902,"OSHKOSH, WI",OSHKOSH,WI,WINNEBAGO
54903,"OSHKOSH, WI",OSHKOSH,WI,WINNEBAGO
54904,"OSHKOSH, WI",OSHKOSH,WI,WINNEBAGO
54758,"OSSEO, WI",OSSEO,WI,TREMPEALEAU
54460,"OWEN, WI",OWEN,WI,CLARK
53952,"OXFORD, WI",OXFORD,WI,MARQUETTE
53953,"PACKWAUKEE, WI",PACKWAUKEE,WI,MARQUETTE
53156,"PALMYRA, WI",PALMYRA,WI,JEFFERSON
53954,"PARDEEVILLE, WI",PARDEEVILLE,WI,COLUMBIA
54552,"PARK FALLS, WI",PARK FALLS,WI,PRICE
53817,"PATCH GROVE, WI",PATCH GROVE,WI,GRANT
54462,"PEARSON, WI",PEARSON,WI,LANGLADE
54463,"PELICAN LAKE, WI",PELICAN LAKE,WI,ONEIDA
53157,"PELL LAKE, WI",PELL LAKE,WI,WALWORTH
54156,"PEMBINE, WI",PEMBINE,WI,MARINETTE
54759,"PEPIN, WI",PEPIN,WI,PEPIN
54157,"PESHTIGO, WI",PESHTIGO,WI,MARINETTE
53072,"PEWAUKEE, WI",PEWAUKEE,WI,WAUKESHA
54554,"PHELPS, WI",PHELPS,WI,VILAS
54555,"PHILLIPS, WI",PHILLIPS,WI,PRICE
54464,"PHLOX, WI",PHLOX,WI,LANGLADE
54465,"PICKEREL, WI",PICKEREL,WI,LANGLADE
54964,"PICKETT, WI",PICKETT,WI,WINNEBAGO
54760,"PIGEON FALLS, WI",PIGEON FALLS,WI,TREMPEALEAU
54965,"PINE RIVER, WI",PINE RIVER,WI,WAUSHARA
54466,"PITTSVILLE, WI",PITTSVILLE,WI,WOOD
53577,"PLAIN, WI",PLAIN,WI,SAUK
54966,"PLAINFIELD, WI",PLAINFIELD,WI,WAUSHARA
53818,"PLATTEVILLE, WI",PLATTEVILLE,WI,GRANT
53158,"PLEASANT PRAIRIE, WI",PLEASANT PRAIRIE,WI,KENOSHA
54467,"PLOVER, WI",PLOVER,WI,PORTAGE
54761,"PLUM CITY, WI",PLUM CITY,WI,PIERCE
53073,"PLYMOUTH, WI",PLYMOUTH,WI,SHEBOYGAN
54864,"POPLAR, WI",POPLAR,WI,DOUGLAS
54469,"PORT EDWARDS, WI",PORT EDWARDS,WI,WOOD
53074,"PORT WASHINGTON, WI",PORT WASHINGTON,WI,OZAUKEE
54865,"PORT WING, WI",PORT WING,WI,BAYFIELD
53901,"PORTAGE, WI",PORTAGE,WI,COLUMBIA
54159,"PORTERFIELD, WI",PORTERFIELD,WI,MARINETTE
53820,"POTOSI, WI",POTOSI,WI,GRANT
54160,"POTTER, WI",POTTER,WI,CALUMET
54161,"POUND, WI",POUND,WI,MARINETTE
53159,"POWERS LAKE, WI",POWERS LAKE,WI,KENOSHA
54967,"POY SIPPI, WI",POY SIPPI,WI,WAUSHARA
53955,"POYNETTE, WI",POYNETTE,WI,COLUMBIA
53821,"PRAIRIE DU CHIEN, WI",PRAIRIE DU CHIEN,WI,CRAWFORD
53578,"PRAIRIE DU SAC, WI",PRAIRIE DU SAC,WI,SAUK
54762,"PRAIRIE FARM, WI",PRAIRIE FARM,WI,BARRON
54556,"PRENTICE, WI",PRENTICE,WI,PRICE
54021,"PRESCOTT, WI",PRESCOTT,WI,PIERCE
54557,"PRESQUE ISLE, WI",PRESQUE ISLE,WI,VILAS
54968,"PRINCETON, WI",PRINCETON,WI,GREEN LAKE
54162,"PULASKI, WI",PULASKI,WI,BROWN
53401,"RACINE, WI",RACINE,WI,RACINE
53402,"RACINE, WI",RACINE,WI,RACINE
53403,"RACINE, WI",RACINE,WI,RACINE
53404,"RACINE, WI",RACINE,WI,RACINE
53405,"RACINE, WI",RACINE,WI,RACINE
53406,"RACINE, WI",RACINE,WI,RACINE
53407,"RACINE, WI",RACINE,WI,RACINE
53408,"RACINE, WI",RACINE,WI,RACINE
54867,"RADISSON, WI",RADISSON,WI,SAWYER
53956,"RANDOLPH, WI",RANDOLPH,WI,DODGE
53075,"RANDOM LAKE, WI",RANDOM LAKE,WI,SHEBOYGAN
54969,"READFIELD, WI",READFIELD,WI,WAUPACA
54652,"READSTOWN, WI",READSTOWN,WI,VERNON
54970,"REDGRANITE, WI",REDGRANITE,WI,WAUSHARA
53959,"REEDSBURG, WI",REEDSBURG,WI,SAUK
54230,"REEDSVILLE, WI",REEDSVILLE,WI,MANITOWOC
53579,"REESEVILLE, WI",REESEVILLE,WI,DODGE
53580,"REWEY, WI",REWEY,WI,IOWA
54501,"RHINELANDER, WI",RHINELANDER,WI,ONEIDA
54470,"RIB LAKE, WI",RIB LAKE,WI,TAYLOR
54868,"RICE LAKE, WI",RICE LAKE,WI,BARRON
53076,"RICHFIELD, WI",RICHFIELD,WI,WASHINGTON
53581,"RICHLAND CENTER, WI",RICHLAND CENTER,WI,RICHLAND
54763,"RIDGELAND, WI",RIDGELAND,WI,DUNN
53582,"RIDGEWAY, WI",RIDGEWAY,WI,IOWA
54471,"RINGLE, WI",RINGLE,WI,MARATHON
53960,"RIO, WI",RIO,WI,COLUMBIA
54971,"RIPON, WI",RIPON,WI,FOND DU LAC
54022,"RIVER FALLS, WI",RIVER FALLS,WI,PIERCE
54023,"ROBERTS, WI",ROBERTS,WI,SAINT CROIX
53167,"ROCHESTER, WI",ROCHESTER,WI,RACINE
54764,"ROCK FALLS, WI",ROCK FALLS,WI,DUNN
53961,"ROCK SPRINGS, WI",ROCK SPRINGS,WI,SAUK
54653,"ROCKLAND, WI",ROCKLAND,WI,LA CROSSE
54974,"ROSENDALE, WI",ROSENDALE,WI,FOND DU LAC
54473,"ROSHOLT, WI",ROSHOLT,WI,PORTAGE
54474,"ROTHSCHILD, WI",ROTHSCHILD,WI,MARATHON
53078,"RUBICON, WI",RUBICON,WI,DODGE
54475,"RUDOLPH, WI",RUDOLPH,WI,WOOD
53079,"SAINT CLOUD, WI",SAINT CLOUD,WI,FOND DU LAC
54024,"SAINT CROIX FALLS, WI",SAINT CROIX FALLS,WI,POLK
53235,"SAINT FRANCIS, WI",SAINT FRANCIS,WI,MILWAUKEE
54558,"SAINT GERMAIN, WI",SAINT GERMAIN,WI,VILAS
54232,"SAINT NAZIANZ, WI",SAINT NAZIANZ,WI,MANITOWOC
53168,"SALEM, WI",SALEM,WI,KENOSHA
54765,"SAND CREEK, WI",SAND CREEK,WI,DUNN
54870,"SARONA, WI",SARONA,WI,WASHBURN
53583,"SAUK CITY, WI",SAUK CITY,WI,SAUK
53080,"SAUKVILLE, WI",SAUKVILLE,WI,OZAUKEE
54976,"SAXEVILLE, WI",SAXEVILLE,WI,WAUSHARA
54559,"SAXON, WI",SAXON,WI,IRON
54560,"SAYNER, WI",SAYNER,WI,VILAS
54977,"SCANDINAVIA, WI",SCANDINAVIA,WI,WAUPACA
54476,"SCHOFIELD, WI",SCHOFIELD,WI,MARATHON
54654,"SENECA, WI",SENECA,WI,CRAWFORD
54165,"SEYMOUR, WI",SEYMOUR,WI,OUTAGAMIE
53585,"SHARON, WI",SHARON,WI,WALWORTH
54166,"SHAWANO, WI",SHAWANO,WI,SHAWANO
53081,"SHEBOYGAN, WI",SHEBOYGAN,WI,SHEBOYGAN
53082,"SHEBOYGAN, WI",SHEBOYGAN,WI,SHEBOYGAN
53083,"SHEBOYGAN, WI",SHEBOYGAN,WI,SHEBOYGAN
53085,"SHEBOYGAN FALLS, WI",SHEBOYGAN FALLS,WI,SHEBOYGAN
54766,"SHELDON, WI",SHELDON,WI,RUSK
54871,"SHELL LAKE, WI",SHELL LAKE,WI,WASHBURN
54169,"SHERWOOD, WI",SHERWOOD,WI,CALUMET
54170,"SHIOCTON, WI",SHIOCTON,WI,OUTAGAMIE
53586,"SHULLSBURG, WI",SHULLSBURG,WI,LAFAYETTE
53170,"SILVER LAKE, WI",SILVER LAKE,WI,KENOSHA
54872,"SIREN, WI",SIREN,WI,BURNETT
54234,"SISTER BAY, WI",SISTER BAY,WI,DOOR
53086,"SLINGER, WI",SLINGER,WI,WASHINGTON
54171,"SOBIESKI, WI",SOBIESKI,WI,OCONTO
54655,"SOLDIERS GROVE, WI",SOLDIERS GROVE,WI,CRAWFORD
54873,"SOLON SPRINGS, WI",SOLON SPRINGS,WI,DOUGLAS
53171,"SOMERS, WI",SOMERS,WI,KENOSHA
54025,"SOMERSET, WI",SOMERSET,WI,SAINT CROIX
53172,"SOUTH MILWAUKEE, WI",SOUTH MILWAUKEE,WI,MILWAUKEE
54874,"SOUTH RANGE, WI",SOUTH RANGE,WI,DOUGLAS
53587,"SOUTH WAYNE, WI",SOUTH WAYNE,WI,LAFAYETTE
54656,"SPARTA, WI",SPARTA,WI,MONROE
54479,"SPENCER, WI",SPENCER,WI,MARATHON
54801,"SPOONER, WI",SPOONER,WI,WASHBURN
53588,"SPRING GREEN, WI",SPRING GREEN,WI,SAUK
54767,"SPRING VALLEY, WI",SPRING VALLEY,WI,PIERCE
54875,"SPRINGBROOK, WI",SPRINGBROOK,WI,WASHBURN
53176,"SPRINGFIELD, WI",SPRINGFIELD,WI,WALWORTH
54768,"STANLEY, WI",STANLEY,WI,CHIPPEWA
54561,"STAR LAKE, WI",STAR LAKE,WI,VILAS
54026,"STAR PRAIRIE, WI",STAR PRAIRIE,WI,POLK
54480,"STETSONVILLE, WI",STETSONVILLE,WI,TAYLOR
54481,"STEVENS POINT, WI",STEVENS POINT,WI,PORTAGE
54482,"STEVENS POINT, WI",STEVENS POINT,WI,PORTAGE
53825,"STITZER, WI",STITZER,WI,GRANT
53088,"STOCKBRIDGE, WI",STOCKBRIDGE,WI,CALUMET
54769,"STOCKHOLM, WI",STOCKHOLM,WI,PEPIN
54658,"STODDARD, WI",STODDARD,WI,VERNON
54876,"STONE LAKE, WI",STONE LAKE,WI,SAWYER
53589,"STOUGHTON, WI",STOUGHTON,WI,DANE
54484,"STRATFORD, WI",STRATFORD,WI,MARATHON
54770,"STRUM, WI",STRUM,WI,TREMPEALEAU
54235,"STURGEON BAY, WI",STURGEON BAY,WI,DOOR
53177,"STURTEVANT, WI",STURTEVANT,WI,RACINE
54173,"SUAMICO, WI",SUAMICO,WI,BROWN
53178,"SULLIVAN, WI",SULLIVAN,WI,JEFFERSON
54485,"SUMMIT LAKE, WI",SUMMIT LAKE,WI,LANGLADE
53590,"SUN PRAIRIE, WI",SUN PRAIRIE,WI,DANE
53596,"SUN PRAIRIE, WI",SUN PRAIRIE,WI,DANE
54880,"SUPERIOR, WI",SUPERIOR,WI,DOUGLAS
54174,"SURING, WI",SURING,WI,OCONTO
53089,"SUSSEX, WI",SUSSEX,WI,WAUKESHA
54659,"TAYLOR, WI",TAYLOR,WI,JACKSON
53091,"THERESA, WI",THERESA,WI,DODGE
54771,"THORP, WI",THORP,WI,CLARK
54562,"THREE LAKES, WI",THREE LAKES,WI,ONEIDA
54486,"TIGERTON, WI",TIGERTON,WI,SHAWANO
54978,"TILLEDA, WI",TILLEDA,WI,SHAWANO
54240,"TISCH MILLS, WI",TISCH MILLS,WI,MANITOWOC
54660,"TOMAH, WI",TOMAH,WI,MONROE
54487,"TOMAHAWK, WI",TOMAHAWK,WI,LINCOLN
54563,"TONY, WI",TONY,WI,RUSK
54175,"TOWNSEND, WI",TOWNSEND,WI,OCONTO
54888,"TREGO, WI",TREGO,WI,WASHBURN
54661,"TREMPEALEAU, WI",TREMPEALEAU,WI,TREMPEALEAU
53179,"TREVOR, WI",TREVOR,WI,KENOSHA
54564,"TRIPOLI, WI",TRIPOLI,WI,ONEIDA
54889,"TURTLE LAKE, WI",TURTLE LAKE,WI,BARRON
53181,"TWIN LAKES, WI",TWIN LAKES,WI,KENOSHA
54241,"TWO RIVERS, WI",TWO RIVERS,WI,MANITOWOC
53962,"UNION CENTER, WI",UNION CENTER,WI,JUNEAU
53182,"UNION GROVE, WI",UNION GROVE,WI,RACINE
54488,"UNITY, WI",UNITY,WI,MARATHON
54565,"UPSON, WI",UPSON,WI,IRON
54245,"VALDERS, WI",VALDERS,WI,MANITOWOC
54979,"VAN DYNE, WI",VAN DYNE,WI,FOND DU LAC
53593,"VERONA, WI",VERONA,WI,DANE
54489,"VESPER, WI",VESPER,WI,WOOD
54664,"VIOLA, WI",VIOLA,WI,RICHLAND
54665,"VIROQUA, WI",VIROQUA,WI,VERNON
54566,"WABENO, WI",WABENO,WI,FOREST
53093,"WALDO, WI",WALDO,WI,SHEBOYGAN
53183,"WALES, WI",WALES,WI,WAUKESHA
53184,"WALWORTH, WI",WALWORTH,WI,WALWORTH
54666,"WARRENS, WI",WARRENS,WI,MONROE
54890,"WASCOTT, WI",WASCOTT,WI,DOUGLAS
54891,"WASHBURN, WI",WASHBURN,WI,BAYFIELD
54246,"WASHINGTON ISLAND, WI",WASHINGTON ISLAND,WI,DOOR
53185,"WATERFORD, WI",WATERFORD,WI,RACINE
53594,"WATERLOO, WI",WATERLOO,WI,JEFFERSON
53098,"WATERTOWN, WI",WATERTOWN,WI,DODGE
53094,"WATERTOWN, WI",WATERTOWN,WI,JEFFERSON
54980,"WAUKAU, WI",WAUKAU,WI,WINNEBAGO
53186,"WAUKESHA, WI",WAUKESHA,WI,WAUKESHA
53187,"WAUKESHA, WI",WAUKESHA,WI,WAUKESHA
53188,"WAUKESHA, WI",WAUKESHA,WI,WAUKESHA
53189,"WAUKESHA, WI",WAUKESHA,WI,WAUKESHA
53597,"WAUNAKEE, WI",WAUNAKEE,WI,DANE
54981,"WAUPACA, WI",WAUPACA,WI,WAUPACA
53963,"WAUPUN, WI",WAUPUN,WI,DODGE
54401,"WAUSAU, WI",WAUSAU,WI,MARATHON
54402,"WAUSAU, WI",WAUSAU,WI,MARATHON
54403,"WAUSAU, WI",WAUSAU,WI,MARATHON
54177,"WAUSAUKEE, WI",WAUSAUKEE,WI,MARINETTE
54982,"WAUTOMA, WI",WAUTOMA,WI,WAUSHARA
53826,"WAUZEKA, WI",WAUZEKA,WI,CRAWFORD
54893,"WEBSTER, WI",WEBSTER,WI,BURNETT
53090,"WEST BEND, WI",WEST BEND,WI,WASHINGTON
53095,"WEST BEND, WI",WEST BEND,WI,WASHINGTON
54669,"WEST SALEM, WI",WEST SALEM,WI,LA CROSSE
54490,"WESTBORO, WI",WESTBORO,WI,TAYLOR
54667,"WESTBY, WI",WESTBY,WI,VERNON
53964,"WESTFIELD, WI",WESTFIELD,WI,MARQUETTE
54983,"WEYAUWEGA, WI",WEYAUWEGA,WI,WAUPACA
54895,"WEYERHAEUSER, WI",WEYERHAEUSER,WI,RUSK
54772,"WHEELER, WI",WHEELER,WI,DUNN
54491,"WHITE LAKE, WI",WHITE LAKE,WI,LANGLADE
54773,"WHITEHALL, WI",WHITEHALL,WI,TREMPEALEAU
54247,"WHITELAW, WI",WHITELAW,WI,MANITOWOC
53190,"WHITEWATER, WI",WHITEWATER,WI,WALWORTH
54984,"WILD ROSE, WI",WILD ROSE,WI,WAUSHARA
54493,"WILLARD, WI",WILLARD,WI,CLARK
53191,"WILLIAMS BAY, WI",WILLIAMS BAY,WI,WALWORTH
53192,"WILMOT, WI",WILMOT,WI,KENOSHA
54027,"WILSON, WI",WILSON,WI,SAINT CROIX
54670,"WILTON, WI",WILTON,WI,MONROE
53598,"WINDSOR, WI",WINDSOR,WI,DANE
54985,"WINNEBAGO, WI",WINNEBAGO,WI,WINNEBAGO
54986,"WINNECONNE, WI",WINNECONNE,WI,WINNEBAGO
54896,"WINTER, WI",WINTER,WI,SAWYER
53965,"WISCONSIN DELLS, WI",WISCONSIN DELLS,WI,COLUMBIA
54494,"WISCONSIN RAPIDS, WI",WISCONSIN RAPIDS,WI,WOOD
54495,"WISCONSIN RAPIDS, WI",WISCONSIN RAPIDS,WI,WOOD
54498,"WITHEE, WI",WITHEE,WI,CLARK
54499,"WITTENBERG, WI",WITTENBERG,WI,SHAWANO
53968,"WONEWOC, WI",WONEWOC,WI,JUNEAU
53599,"WOODFORD, WI",WOODFORD,WI,LAFAYETTE
53099,"WOODLAND, WI",WOODLAND,WI,DODGE
53827,"WOODMAN, WI",WOODMAN,WI,GRANT
54568,"WOODRUFF, WI",WOODRUFF,WI,ONEIDA
54028,"WOODVILLE, WI",WOODVILLE,WI,SAINT CROIX
54180,"WRIGHTSTOWN, WI",WRIGHTSTOWN,WI,BROWN
53969,"WYOCENA, WI",WYOCENA,WI,COLUMBIA
54182,"ZACHOW, WI",ZACHOW,WI,SHAWANO
53195,"ZENDA, WI",ZENDA,WI,WALWORTH
,,,,
,,,,
"For more information, kindly visit : www.downloadexcelfiles.com",,,,
